OBJECT_NAME,OBJECT_ID,EPOCH,MEAN_MOTION,ECCENTRICITY,INCLINATION,RA_OF_ASC_NODE,ARG_OF_PERICENTER,MEAN_ANOMALY,EPHEMERIS_TYPE,CLASSIFICATION_TYPE,NORAD_CAT_ID,ELEMENT_SET_NO,REV_AT_EPOCH,BSTAR,MEAN_MOTION_DOT,MEAN_MOTION_DDOT
STARLINK-3733,2022-029BB,2026-06-18T14:28:11.688384,15.08834563,.000125,53.1611,335.9959,91.3710,268.7425,0,U,52137,999,23617,.83526E-6,-.275E-5,0
STARLINK-3723,2022-029BC,2026-06-18T16:14:11.143104,15.08840369,.0001339,53.1614,335.6636,106.1670,253.9469,0,U,52138,999,23618,-.29588E-4,-.759E-5,0
STARLINK-3730,2022-029BD,2026-06-17T20:41:44.514528,15.08820941,.00011135,53.1598,349.3260,93.7039,266.4080,0,U,52139,999,23591,.93499111E-4,.12E-4,0
STARLINK-3682,2022-029BE,2026-06-18T14:22:53.820192,15.08834675,.0001269,53.1609,336.0122,91.7964,268.3173,0,U,52140,999,23617,.10898E-4,-.115E-5,0
STARLINK-3761,2022-041B,2026-06-17T23:59:07.069632,15.08833325,.00012288,53.1602,18.6643,79.5100,280.6030,0,U,52262,999,22950,-.5684228E-5,-.378E-5,0
STARLINK-3786,2022-041C,2026-06-17T20:53:39.360480,15.08831403,.00013626,53.1610,19.2904,90.3145,269.8003,0,U,52263,999,22948,.14860528E-4,-.52E-6,0
STARLINK-3795,2022-041D,2026-06-18T18:00:02.000160,15.15149491,.0002442,53.1605,15.2483,83.2034,101.6972,0,U,52264,999,582,.63953E-3,.11847E-3,0
STARLINK-3740,2022-041E,2026-06-17T23:48:31.682304,15.08836860,.00012542,53.1596,18.7449,81.6665,278.4469,0,U,52265,999,22950,.20409165E-4,.37E-6,0
STARLINK-3739,2022-041F,2026-06-18T07:33:11.921184,15.09413308,.0001104,53.2146,17.3424,79.8707,280.2410,0,U,52266,999,22955,.57173E-3,.8966E-4,0
STARLINK-3748,2022-041G,2026-06-18T07:34:51.436704,15.08835236,.0001254,53.1599,17.2932,99.5434,260.5699,0,U,52267,999,22955,.20292E-4,.35E-6,0
STARLINK-3746,2022-041H,2026-06-18T07:08:21.287040,15.08833352,.0001365,53.1608,17.2945,87.3811,272.7337,0,U,52268,999,22955,.32289E-4,.226E-5,0
STARLINK-3791,2022-041J,2026-06-17T20:21:51.657120,15.08834392,.00012671,53.1591,19.3882,94.8280,265.2856,0,U,52269,999,22948,.980723E-5,-.132E-5,0
STARLINK-3804,2022-041K,2026-06-18T07:18:57.763872,15.08836676,.0001193,53.1591,17.3677,94.7001,265.4126,0,U,52270,999,22955,.39984E-4,.348E-5,0
STARLINK-3788,2022-041L,2026-06-18T07:24:15.688224,15.08839250,.0001332,53.1599,17.3220,88.9700,271.1444,0,U,52271,999,22955,-.43877E-4,-.986E-5,0
STARLINK-3781,2022-041M,2026-06-18T07:15:02.678112,15.08838122,.0001271,53.1597,17.3896,86.9173,273.1964,0,U,52272,999,22955,.53886E-4,.57E-5,0
STARLINK-3782,2022-041N,2026-06-18T12:55:35.020128,15.08834108,.0001255,53.1603,6.6714,87.7238,272.3898,0,U,52273,999,22972,.6569E-4,.758E-5,0
STARLINK-3790,2022-041P,2026-06-17T21:30:46.147680,15.08834107,.00012216,53.1604,19.1720,78.9989,281.1140,0,U,52274,999,22949,.81897726E-4,.1016E-4,0
STARLINK-3784,2022-041Q,2026-06-18T07:13:39.550080,15.08835409,.0001271,53.1596,17.3542,89.6680,270.4457,0,U,52275,999,22955,.39468E-4,.34E-5,0
STARLINK-3778,2022-041R,2026-06-17T23:00:50.458176,15.08832898,.00012495,53.1606,18.8916,89.2686,270.8449,0,U,52276,999,22950,.38460522E-4,.324E-5,0
STARLINK-3780,2022-041T,2026-06-18T06:52:28.175808,15.08833831,.0001337,53.1606,17.4204,88.1652,271.9492,0,U,52278,999,22955,.38656E-4,.327E-5,0
STARLINK-3764,2022-041V,2026-06-17T19:28:52.169088,15.08831300,.00012961,53.1597,19.5548,88.9619,271.1521,0,U,52280,999,22948,-.18083234E-4,-.576E-5,0
STARLINK-3779,2022-041W,2026-06-18T06:59:08.572416,15.08827948,.0001609,53.1608,17.3985,82.8798,277.2376,0,U,52281,999,22955,-.18329E-4,-.58E-5,0
STARLINK-3783,2022-041X,2026-06-17T22:30:22.164192,15.08831917,.0001042,53.1603,8.9880,93.4367,266.6744,0,U,52282,999,22963,.49272757E-4,.496E-5,0
STARLINK-3789,2022-041Y,2026-06-18T00:25:37.405056,15.08833508,.00012521,53.1604,18.6270,86.9004,273.2131,0,U,52283,999,22951,.57593259E-4,.629E-5,0
STARLINK-3561,2022-041Z,2026-06-18T12:38:14.697600,15.08831248,.0001234,53.1610,6.3397,76.6596,283.4533,0,U,52284,999,22972,.20076E-4,.32E-6,0
STARLINK-3802,2022-041AB,2026-06-17T22:09:10.539360,15.08826807,.00012398,53.1600,9.0546,89.8030,270.3104,0,U,52286,999,22963,-.83496E-5,-.421E-5,0
STARLINK-3822,2022-041AC,2026-06-18T00:09:43.507584,15.08834340,.00009263,53.1596,18.6777,89.8135,270.2963,0,U,52287,999,22951,.22787507E-4,.75E-6,0
STARLINK-3776,2022-041AD,2026-06-17T18:53:05.942112,15.08827468,.00012415,53.1600,9.6669,91.5349,268.5784,0,U,52288,999,22961,.45583917E-4,.437E-5,0
STARLINK-3751,2022-041AE,2026-06-18T00:00:28.073952,15.08822802,.00015799,53.1606,8.7066,58.2555,301.8591,0,U,52289,999,22964,-.35355626E-4,-.85E-5,0
STARLINK-3772,2022-041AF,2026-06-17T23:24:44.234208,15.08833776,.0001338,53.1600,8.8176,91.3851,268.7293,0,U,52290,999,22964,.18358373E-4,.4E-7,0
STARLINK-3753,2022-041AH,2026-06-18T16:47:18.288672,15.08832012,.0001349,53.1599,5.5630,91.0738,269.0408,0,U,52292,999,22975,.29041E-5,-.242E-5,0
STARLINK-3771,2022-041AJ,2026-06-18T01:10:41.991168,15.08846949,.00013208,53.1598,8.4969,96.6255,263.4887,0,U,52293,999,22965,.27304368E-3,.4061E-4,0
STARLINK-3777,2022-041AK,2026-06-18T16:42:00.245952,15.08831841,.0001359,53.1607,5.5781,99.7365,260.3780,0,U,52294,999,22975,-.10093E-4,-.449E-5,0
STARLINK-3765,2022-041AL,2026-06-17T20:17:53.166336,15.08830856,.00012163,53.1595,9.3998,89.5486,270.5645,0,U,52295,999,22962,.7706405E-5,-.165E-5,0
STARLINK-3766,2022-041AM,2026-06-18T16:26:05.045568,15.08846772,.0001203,53.1597,5.6294,99.7056,260.4071,0,U,52296,999,22975,.15641E-3,.2203E-4,0
STARLINK-3758,2022-041AN,2026-06-17T23:23:21.427584,15.08834560,.00013592,53.1603,8.8215,90.1257,269.9890,0,U,52297,999,22964,.8560089E-5,-.152E-5,0
STARLINK-3760,2022-041AP,2026-06-17T20:23:07.083456,15.08829953,.00012609,53.1597,8.9982,88.6538,271.4598,0,U,52298,999,22963,.33257543E-4,.241E-5,0
STARLINK-3769,2022-041AR,2026-06-17T22:40:57.989568,15.08835634,.00012754,53.1601,8.9553,90.8507,269.2631,0,U,52300,999,23086,.7384061E-4,.887E-5,0
STARLINK-3768,2022-041AS,2026-06-18T16:36:42.602400,15.08830863,.0001429,53.1607,5.5958,89.1261,270.9894,0,U,52301,999,22975,.9069E-4,.1155E-4,0
STARLINK-3564,2022-041AT,2026-06-18T18:00:02.000160,15.12897072,.0002243,53.1603,355.3094,60.4886,63.6831,0,U,52302,999,582,.69102E-3,.12026E-3,0
STARLINK-3742,2022-041AU,2026-06-17T22:46:17.286816,15.08829285,.00015376,53.1606,8.9380,67.5246,292.5908,0,U,52303,999,23086,.81872166E-4,.1015E-4,0
STARLINK-3744,2022-041AV,2026-06-17T19:10:19.069248,15.08836058,.00012985,53.1602,359.6156,85.4861,274.6279,0,U,52304,999,22975,.37194174E-4,.304E-5,0
STARLINK-3724,2022-041AW,2026-06-18T13:10:03.285696,15.08843465,.0000979,53.1588,6.3489,100.5742,259.5359,0,U,52305,999,22973,-.36287E-5,-.346E-5,0
STARLINK-3747,2022-041AX,2026-06-17T22:15:47.676960,15.08840489,.00011926,53.1593,359.0333,98.0457,262.0669,0,U,52306,999,23099,.10389868E-3,.1366E-4,0
STARLINK-3755,2022-041AY,2026-06-17T22:35:39.570144,15.08848235,.00012453,53.1598,8.9707,88.3633,271.7501,0,U,52307,999,22964,-.16748699E-3,-.2953E-4,0
STARLINK-3756,2022-041BA,2026-06-18T18:00:02.000160,15.13032617,.0002404,53.1603,355.3060,83.1193,102.0646,0,U,52309,999,577,.87006E-3,.15285E-3,0
STARLINK-3688,2022-041BB,2026-06-18T18:00:02.000160,15.13457418,.0002334,53.1593,355.3654,87.0150,121.6797,0,U,52310,999,581,.93498E-3,.16651E-3,0
STARLINK-3750,2022-041BC,2026-06-18T12:18:22.896000,15.08850012,.0001134,53.1610,356.4046,91.1344,268.9777,0,U,52311,999,23108,.22027E-3,.322E-4,0
STARLINK-3752,2022-041BD,2026-06-17T22:36:59.597280,15.08838859,.00014704,53.1599,358.9182,84.5478,275.5681,0,U,52312,999,23100,-.666448E-5,-.394E-5,0
STARLINK-3749,2022-041BE,2026-06-17T22:42:17.466336,15.08824298,.00010409,53.1597,358.9506,82.7962,277.3148,0,U,52313,999,23100,.97542756E-4,.1264E-4,0
STARLINK-3889,2022-045A,2026-06-18T06:23:19.522752,15.08840510,.0001353,53.1596,117.5162,95.2947,264.8199,0,U,52331,999,23082,-.23504E-4,-.662E-5,0
STARLINK-3831,2022-045B,2026-06-18T01:54:26.411904,15.08833899,.0001422,53.1610,118.3642,87.7471,272.3683,0,U,52332,999,23079,.82384E-5,-.157E-5,0
STARLINK-3847,2022-045C,2026-06-18T08:08:09.352032,15.09548291,.0001467,53.1601,117.1797,51.3242,308.7881,0,U,52333,999,23082,.53265E-2,.87216E-3,0
STARLINK-3880,2022-045D,2026-06-18T06:18:01.982880,15.08831062,.0001328,53.1600,117.5310,84.3387,275.7755,0,U,52334,999,23081,.77784E-4,.95E-5,0
STARLINK-3814,2022-045E,2026-06-18T14:09:39.208032,15.08826631,.0001528,53.1610,116.0597,87.6486,272.4680,0,U,52335,999,23087,.1571E-3,.2212E-4,0
STARLINK-3823,2022-045F,2026-06-18T18:00:02.000160,15.18540908,.0000626,53.1614,114.9140,110.5063,291.3213,0,U,52336,999,581,.41886E-2,.88316E-3,0
STARLINK-3797,2022-045G,2026-06-18T03:17:50.987616,15.08832906,.0001405,53.1605,118.0947,83.9069,276.2082,0,U,52337,999,23080,-.28278E-4,-.738E-5,0
STARLINK-3792,2022-045J,2026-06-18T01:53:00.528576,15.08825544,.0001259,53.1607,118.0010,83.5461,276.5674,0,U,52339,999,23080,.93837E-4,.1205E-4,0
STARLINK-3818,2022-045K,2026-06-18T12:56:48.088608,15.08826601,.0001295,53.1596,106.2827,82.3881,277.7258,0,U,52340,999,23099,-.24861E-4,-.683E-5,0
STARLINK-3843,2022-045L,2026-06-18T13:48:26.947296,15.08838057,.0001322,53.1605,116.0768,87.0897,273.0245,0,U,52341,999,23087,.17719E-4,-.6E-7,0
STARLINK-3850,2022-045M,2026-06-18T13:02:06.667008,15.08831829,.000132,53.1611,106.3860,89.3648,270.7494,0,U,52342,999,23100,.28297E-4,.162E-5,0
STARLINK-3849,2022-045N,2026-06-18T13:06:03.765024,15.08830736,.0001222,53.1608,116.2575,88.4197,271.6934,0,U,52343,999,23087,-.14573E-4,-.52E-5,0
STARLINK-3851,2022-045P,2026-06-18T12:46:12.232992,15.08829923,.000143,53.1615,106.3873,100.8354,259.2798,0,U,52344,999,23100,.44931E-4,.427E-5,0
STARLINK-3852,2022-045Q,2026-06-18T13:24:41.298048,15.08835887,.0001376,53.1609,106.3639,89.7390,270.3759,0,U,52345,999,23099,.32927E-4,.236E-5,0
STARLINK-3812,2022-045R,2026-06-18T12:36:58.397760,15.08831836,.0001654,53.1615,106.3571,86.2152,273.9028,0,U,52346,999,23100,.19823E-4,.27E-6,0
